#dP2023  1 26  0  0  0.00000000      96 __u+U IGS14 FIT  IAC
## 2246 345600.00000000   900.00000000 59970 0.0000000000000
+  118   C06C07C08C09C10C11C12C13C14C16C19C20C21C22C23C24C25
+        C26C27C28C29C30C32C33C34C35C36C37C38C39C40C41C42C43
+        C44C45C46E01E02E03E04E05E07E08E09E10E11E12E13E14E15
+        E18E19E21E24E25E27E30E31E33E34E36G01G02G03G04G05G06
+        G07G08G09G10G11G12G13G14G15G16G17G18G19G20G21G22G23
+        G24G25G26G27G29G30G31G32J02J03J04R01R02R03R04R05R07
+        R08R09R11R12R13R14R15R16R17R18R19R20R21R22R24R25  0
++         7  7  7  7  7  7  7  7  7 15  6  5  6  6  6  6  5
++         6  6  6  6  6  6  6  6  6  6  6  6  7  6  6  6  6
++         6  6  6  4  4  4  4  4  4  4  4  4  4  4  4  5  4
++         5  4  4  4  4  4  5  4  4  4  4  3  4  3  4  4  3
++         4  4  4  3  3  3  4  3  4  4  3  4  3  4  4  4  3
++         3  4  4  4  4  3  4  7  9  9 10  7  6  7  7  7  6
++         6  7  7  7  8  7  7  7  7  6  7  8  7  7  7  8  0
%c M  cc GPS ccc cccc cccc cccc cccc ccccc ccccc ccccc ccccc
%c cc cc ccc ccc cccc cccc cccc cccc ccccc ccccc ccccc ccccc
%f  1.2500000  1.025000000  0.00000000000  0.000000000000000
%f  0.0000000  0.000000000  0.00000000000  0.000000000000000
%i    0    0    0    0      0      0      0      0         0
%i    0    0    0    0      0      0      0      0         0
/* INFORMATION & ANALYSIS CENTER (IAC)            FINAL DATA
/* S/V CLOCKS ARE ALIGNED TO GNSS TIME                      
/* G:C1WC2W R:C1PC2P E:C1XC5X C:C2IC6I J:C1CC2S             
/* PCV:IGS20_2239 OL/AL:FES2004  NONE     YN ORB:CoN CLK:CoN
*  2023 01 26  9 15  0.00000000
PC06  -7504.542033  40033.603486 -10320.377622   -188.012203
PC07  -5584.620649  26960.582942  31987.208150    -38.852880
PC08 -18760.373301  28373.044368 -25024.848142    527.804015
PC09  -2797.803144  41741.869730  -1263.027209    416.682224
PC10   1694.322628  28944.172938  31017.829679     24.618873
PC11  15517.762492   1113.966028 -23096.253178   -156.459282
PC12  12824.889847  19947.273720 -14669.394161    417.743481
PC13 -13274.734114  29080.911408 -27469.031326    192.519991
PC14  26178.931966   2750.032583   9362.446247    409.094974
PC16  -7694.490415  39646.042752 -11353.416317     73.730717
PC19 -21680.053104   4380.670930 -16980.455491   -895.670526
PC20 -26537.380195  -8376.729670  -1895.526568    751.484383
PC21  15724.977351  17075.552152 -15483.870378   -914.295520
PC22  -4054.131167  15256.005083 -23011.641021   -665.905243
PC23  13651.177241 -21671.841552 -11072.876435   -873.153185
PC24  19128.107080   2960.005857  20071.862101   -492.133705
PC25  22995.601847 -14812.607826   5452.334342     61.606897
PC26   5384.127267  16284.221694  22000.845224    -69.718064
PC27  -9067.065248 -25412.991309   7138.219142     87.262991
PC28   2491.388394 -26128.241633  -9474.727839     63.234187
PC29 -13255.217301  11246.835545  21825.905228     72.536145
PC30 -16320.179678 -10619.842495  19995.918355      1.256532
PC32 -15741.965488 -16989.120107  15578.911909   -639.305940
PC33  21741.921369  -4474.941967  16925.057494   -877.503431
PC34  16468.169855   9240.581196 -20546.169556     92.061839
PC35  -2494.187004  25667.197649  10605.461887    691.244614
PC36 -23473.992415  13818.516628  -6078.013173   -668.436961
PC37  -3686.271257 -17191.978244 -21659.786625   -837.128452
PC38 -24655.105550  29693.562017 -17090.753578     54.505441
PC39 -10290.708804  36230.895925 -18685.967813     -1.569412
PC40  -9506.948342  21036.248141  35274.580193    -13.488620
PC41   4722.894691 -15092.200457  23046.257358   -537.488682
PC42  26385.648936   9089.697292    726.044387   -873.351068
PC43  13709.464372 -10409.016532 -21975.427872      3.988942
PC44   9944.882223  25110.231089  -6958.767228    189.223290
PC45 -13403.587838  21653.787691  11434.298651    -52.357524
PC46 -20145.971146  -1221.161600 -19299.303734    -29.038203
PE01  28952.592545  -5729.006677  -2168.915308   -598.400974
PE02 -28893.359089   5973.766186   2534.383204     16.981927
PE03 -19170.039022   1368.797231 -22515.528779   -643.702895
PE04   5183.827541 -18677.805592  22376.108343    -44.434187
PE05 -22207.028393 -17172.536179  -9394.707940   -101.509840
PE07  12172.437512  25408.603271  -9079.888658    -18.083729
PE08  -5144.380267  18522.589669 -22510.966247    -25.669754
PE09 -12110.476561 -25352.922663   9301.243903   -813.539561
PE10   6750.286995 -28213.226813   5880.111318   -507.808062
PE11   -927.568572 -25258.779605  15415.502000    622.140027
PE12  12772.082052 -26468.274518  -3619.179052   -398.361047
PE13    276.683053  25664.702265 -14727.838658    429.688687
PE14   5893.751828 -20568.012530 -18942.940471    124.159000
PE15 -12891.796260  26342.415162   3986.521191    691.612461
PE18   9300.001873  26822.900885   6822.801854   -465.043679
PE19  20265.644029   1466.973179  21526.513862  -3392.458726
PE21  25028.540354   6294.762221  14480.220400   -508.462933
PE24  -5547.881953 -16060.042705 -24258.517900  -1078.990375
PE25 -24844.643728  -6497.029516 -14733.024376   -598.011676
PE27   6541.296720  15767.723287  24176.865905   -496.883051
PE30 -16338.743219  15645.408041  19087.243618  -1191.015915
PE31  15581.885938 -15855.162294 -19537.417475   -514.328850
PE33  18346.269495 -11487.105535 -20185.422565   -453.422812
PE34 -18330.547669  11677.683111  20097.964133    -26.794593
PE36 -13126.356766  -9970.213960  24595.338284     -2.946785
PG01 -14061.219793  21721.667027   4780.765868    219.901488
PG02  10429.672611 -24437.218422  -1811.327219   -624.982252
PG03 -16871.815353  12503.977976 -16316.203679   -369.510131
PG04  -6443.420968  15926.404515 -20220.539696    -40.959109
PG05  25902.067568  -5384.436413   2817.833438   -113.448005
PG06   9742.113005  12264.549308 -21363.689993    564.156550
PG07  -4585.816277  24515.518290   8804.393676    252.396095
PG08 -14974.473810   4879.659578  21381.235199   -105.421111
PG09   4198.198889  22299.291228 -13842.637196   -229.792043
PG10 -14511.596372 -11721.335538  19200.012608    -22.001300
PG11  16754.124994  -1149.121884 -20558.686968    -87.854961
PG12  18802.563564 -10959.602867 -15432.296923   -332.656610
PG13  17187.458642   3826.784219  19767.348642    465.705344
PG14  11527.847778  13549.662972  19764.360970    -41.467506
PG15  14400.269473  -7110.387276  20737.136930      7.903481
PG16 -26814.792466     39.219641    145.576051   -522.607842
PG17  12505.596226  23306.229539   2185.061261    695.938609
PG18   2959.056924 -23721.684614  11424.007758   -114.423877
PG19  17254.380327  18232.943687  -9308.580294    269.182239
PG20  24930.097393    155.024632  -8816.659362    454.681064
PG21 -16183.165532  15642.143000  14020.843814    153.674008
PG22 -18148.693244 -15633.372034 -11224.064145    413.884584
PG23  -1836.112902 -14856.055888  21941.900506      3.704391
PG24  14488.558295 -19860.201207   9145.895511    -46.508629
PG25   9178.675011 -15150.172505 -20013.873083    414.624178
PG26 -23099.647726  -5665.345788 -12273.471762    240.821750
PG27 -19182.990972  -7048.402718  16956.151516    117.738568
PG29   -120.160017 -21248.858308 -15929.611050   -582.584992
PG30   5247.765967  19120.823102  17641.675575   -532.248186
PG31 -11772.108171 -10520.108411 -21472.684038   -207.421901
PG32 -15847.472392 -21437.609881   -673.026431   -376.246721
PJ02 -31458.786652  23954.935772  19608.465285     -0.687515
PJ03 -27660.487845  27261.366985  21597.687946     -0.000880
PJ04 -26962.923382  21364.490691 -19114.160213    120.485927
PR01 -22713.118082  -8324.711404  -8078.373182     21.913464
PR02 -13194.846461   3770.690231 -21473.817742    -23.311420
PR03   3456.200010  13696.723375 -21177.996440     71.430462
PR04  17807.074882  15754.918942  -9188.589483    173.523952
PR05  22393.495080   9339.178954   7839.333934    106.754526
PR07  -4279.008559 -14050.141921  20909.995936     48.702081
PR08 -17939.259412 -15729.568009   9129.674538    -69.189715
PR09  21056.627759 -14172.564295  -2893.066615    100.637547
PR11  -6795.076970  -8676.893953 -22998.277730      2.604848
PR12 -20825.305490   4028.153452 -14166.549681     24.588031
PR13 -21728.355205  13316.837813   1157.036490    -31.333527
PR14  -9319.527061  15457.250520  18022.806288     24.294097
PR15   7835.099365   8199.243914  22859.944804     91.494786
PR16  20596.999748  -4032.869183  14518.987935     10.462392
PR17  -1918.005685  25254.233759   3198.254420    599.171522
PR18   5317.467510  21172.111850 -13128.603395     63.676657
PR19   9488.549825   7879.754749 -22322.134913   -219.591434
PR20   9236.912562 -14389.592962 -18934.083374    -86.564210
PR21   1289.389286 -25422.270080  -1467.482575   -368.378625
PR22  -5153.143709 -20879.589533  13761.576549     68.288441
PR24  -9024.691617  15200.018293  18416.102305    142.263801
PR25   3309.589250 -25041.245284  -3489.367886     52.647056
EOF
